{
"type": "FeatureCollection",
"name": "Dosificadores",
"crs": { "type": "name", "properties": { "name": "urn:ogc:def:crs:OGC:1.3:CRS84" } },
"features": [
{ "type": "Feature", "properties": { "Municip": "Metepec", "Locacin": "Pozo La Victoria", "Año": 2020.0, "estado": "Funcionando en buen estado", "Gastdag": 7.0, "Marca": "Milton Roy", "Modelo": "PD041-0828-NI" }, "geometry": { "type": "Point", "coordinates": [ -98.30405, 20.25851 ] } },
{ "type": "Feature", "properties": { "Municip": "Metepec", "Locacin": "Pozo Palo Gordo", "Año": 2020.0, "estado": "Funcionando en buen estado", "Gastdag": 6.0, "Marca": "Milton Roy", "Modelo": "PD041-0828-NI" }, "geometry": { "type": "Point", "coordinates": [ -98.208493, 20.490112 ] } },
{ "type": "Feature", "properties": { "Municip": "Emiliano Zapata", "Locacin": "Pozo 1 Cabecera Municipal", "Año": 2020.0, "estado": "Funcionando en buen estado", "Gastdag": 11.0, "Marca": "Milton Roy", "Modelo": "PD041-0828-NI" }, "geometry": { "type": "Point", "coordinates": [ -98.54692, 19.655301 ] } },
{ "type": "Feature", "properties": { "Municip": "Emiliano Zapata", "Locacin": "Pozo Santa Barbara", "Año": 2020.0, "estado": "Funcionando en buen estado", "Gastdag": 9.0, "Marca": "Milton Roy", "Modelo": "PD041-0828-NI" }, "geometry": { "type": "Point", "coordinates": [ -98.566689, 19.664526 ] } },
{ "type": "Feature", "properties": { "Municip": "Chapantongo", "Locacin": "Pozo La Unidad", "Año": 2020.0, "estado": "Funcionando en buen estado", "Gastdag": 9.0, "Marca": "Milton Roy", "Modelo": "PD041-0828-NI" }, "geometry": { "type": "Point", "coordinates": [ -99.412139, 20.275594 ] } },
{ "type": "Feature", "properties": { "Municip": "Chapantongo", "Locacin": "Pozo Toxthe", "Año": 2020.0, "estado": "Funcionando en buen estado", "Gastdag": 7.0, "Marca": "Milton Roy", "Modelo": "PD041-0828-NI" }, "geometry": { "type": "Point", "coordinates": [ -99.449024, 20.301497 ] } },
{ "type": "Feature", "properties": { "Municip": "Actopan", "Locacin": "Tanque Efren Rebolledo", "Año": 2020.0, "estado": "Funcionando en buen estado", "Gastdag": 6.0, "Marca": "Milton Roy", "Modelo": "PD041-0828-NI" }, "geometry": { "type": "Point", "coordinates": [ -98.94655, 20.28779 ] } },
{ "type": "Feature", "properties": { "Municip": "Agua Blanca de Iturbide", "Locacin": "Tanque Remudadero", "Año": 2023.0, "estado": "Funcionando en buen estado", "Gastdag": 12.0, "Marca": "EMEC", "Modelo": "Pompa VCO 1804" }, "geometry": { "type": "Point", "coordinates": [ -98.36197, 20.36655 ] } },
{ "type": "Feature", "properties": { "Municip": "Agua Blanca de Iturbide", "Locacin": "Caseta Chichicaxtle", "Año": 2023.0, "estado": "Funcionando en buen estado", "Gastdag": 16.0, "Marca": "EMEC", "Modelo": "Pompa VCO 1804" }, "geometry": { "type": "Point", "coordinates": [ -98.37289, 20.37546 ] } },
{ "type": "Feature", "properties": { "Municip": "Metepec", "Locacin": "Pozo Nuevo Metepec", "Año": 2023.0, "estado": "Funcionando en buen estado", "Gastdag": 6.0, "Marca": "EMEC", "Modelo": "Pompa VCO 1804" }, "geometry": { "type": "Point", "coordinates": [ -98.318522, 20.249297 ] } },
{ "type": "Feature", "properties": { "Municip": "Metepec", "Locacin": "Pozo Temaxcalillos", "Año": 2023.0, "estado": "Funcionando en buen estado", "Gastdag": 7.0, "Marca": "EMEC", "Modelo": "Pompa VCO 1804" }, "geometry": { "type": "Point", "coordinates": [ -98.35559, 20.26932 ] } },
{ "type": "Feature", "properties": { "Municip": "Alfajayucan", "Locacin": "Pozo San Francisco Sacachichilco", "Año": 2023.0, "estado": "Funcionando en buen estado", "Gastdag": 12.0, "Marca": "EMEC", "Modelo": "Pompa VCO 1804" }, "geometry": { "type": "Point", "coordinates": [ -99.387705, 20.477727 ] } },
{ "type": "Feature", "properties": { "Municip": "Mineral del Chico", "Locacin": "Pozo 1 Cabecera Municipal", "Año": 2023.0, "estado": "Funcionando en buen estado", "Gastdag": 7.0, "Marca": "EMEC", "Modelo": "Pompa VCO 1804" }, "geometry": { "type": "Point", "coordinates": [ -98.730758, 20.20954 ] } },
{ "type": "Feature", "properties": { "Municip": "Mineral del Chico", "Locacin": "Tanque La Palma", "Año": 2023.0, "estado": "Funcionando en buen estado", "Gastdag": 4.0, "Marca": "EMEC", "Modelo": "Pompa VCO 1804" }, "geometry": { "type": "Point", "coordinates": [ -98.75978, 20.180596 ] } },
{ "type": "Feature", "properties": { "Municip": "Pacula", "Locacin": "Pozo 1 Cabecera Municipal", "Año": 2023.0, "estado": "Funcionando en buen estado", "Gastdag": 9.0, "Marca": "EMEC", "Modelo": "Pompa VCO 1804" }, "geometry": { "type": "Point", "coordinates": [ -99.295596, 21.051183 ] } },
{ "type": "Feature", "properties": { "Municip": "Pacula", "Locacin": "Pozo Santa Maria", "Año": 2023.0, "estado": "Funcionando en buen estado", "Gastdag": 7.0, "Marca": "EMEC", "Modelo": "Pompa VCO 1804" }, "geometry": { "type": "Point", "coordinates": [ -99.331725, 20.914258 ] } },
{ "type": "Feature", "properties": { "Municip": "Cardonal", "Locacin": "Pozo L a Florida", "Año": 2025.0, "estado": "Funcionando en buen estado", "Gastdag": 10.0, "Marca": "LMI Milton ROY", "Modelo": "PD041-828SI" }, "geometry": { "type": "Point", "coordinates": [ -98.999582, 20.513677 ] } },
{ "type": "Feature", "properties": { "Municip": "Cardonal", "Locacin": "Pozo Cardonal vito", "Año": 2025.0, "estado": "Funcionando en buen estado", "Gastdag": 8.0, "Marca": "LMI Milton ROY", "Modelo": "PD041-828SI" }, "geometry": { "type": "Point", "coordinates": [ -99.120463, 20.622689 ] } },
{ "type": "Feature", "properties": { "Municip": "Tecozautla", "Locacin": "Tecozautla", "Año": 2025.0, "estado": "Funcionando en buen estado", "Gastdag": 13.0, "Marca": "LMI Milton ROY", "Modelo": "PD041-828SI" }, "geometry": { "type": "Point", "coordinates": [ -99.63333, 20.53416 ] } },
{ "type": "Feature", "properties": { "Municip": "Huichapan", "Locacin": "Pozo Tinajas", "Año": 2025.0, "estado": "Funcionando en buen estado", "Gastdag": 13.0, "Marca": "LMI Milton ROY", "Modelo": "PD041-828SI" }, "geometry": { "type": "Point", "coordinates": [ -99.6436016, 20.3877619 ] } },
{ "type": "Feature", "properties": { "Municip": "Calnali", "Locacin": "Pozo Pezmatlan", "Año": 2025.0, "estado": "Funcionando en buen estado", "Gastdag": 8.0, "Marca": "LMI Milton ROY", "Modelo": "PD041-828SI" }, "geometry": { "type": "Point", "coordinates": [ -98.57534, 20.87469 ] } },
{ "type": "Feature", "properties": { "Municip": "San Agustín Metzquititlán", "Locacin": "Pozo de Agua Bendita", "Año": 2025.0, "estado": "Funcionando en buen estado", "Gastdag": 7.0, "Marca": "LMI Milton ROY", "Modelo": "PD041-828SI" }, "geometry": { "type": "Point", "coordinates": [ -98.626677, 20.429444 ] } },
{ "type": "Feature", "properties": { "Municip": "Tepeji del Río de Ocampo", "Locacin": "Pozo Tlaxinacalpan", "Año": 2025.0, "estado": "Funcionando en buen estado", "Gastdag": 14.0, "Marca": "LMI Milton ROY", "Modelo": "PD041-828SI" }, "geometry": { "type": "Point", "coordinates": [ -99.339387, 19.923686 ] } },
{ "type": "Feature", "properties": { "Municip": "Almoloya", "Locacin": "Pozo Almoloya", "Año": 2025.0, "estado": "Funcionando en buen estado", "Gastdag": 11.0, "Marca": "LMI Milton ROY", "Modelo": "PD041-828SI" }, "geometry": { "type": "Point", "coordinates": [ -98.403333, 19.703333 ] } },
{ "type": "Feature", "properties": { "Municip": "Tepetitlán", "Locacin": "Pozo La Loma", "Año": 2025.0, "estado": "Funcionando en buen estado", "Gastdag": 10.0, "Marca": "LMI Milton ROY", "Modelo": "PD041-828SI" }, "geometry": { "type": "Point", "coordinates": [ -99.383329, 20.164044 ] } },
{ "type": "Feature", "properties": { "Municip": "Tepetitlán", "Locacin": "Pozo Pedro Ma. Anaya", "Año": 2025.0, "estado": "Funcionando en buen estado", "Gastdag": 12.0, "Marca": "LMI Milton ROY", "Modelo": "PD041-828SI" }, "geometry": { "type": "Point", "coordinates": [ -99.349588, 20.153641 ] } },
{ "type": "Feature", "properties": { "Municip": "San Felipe Orizatlán", "Locacin": "Pozo San Felipe 1", "Año": 2025.0, "estado": "Funcionando en buen estado", "Gastdag": null, "Marca": "LMI Milton ROY", "Modelo": "PD041-828SI" }, "geometry": { "type": "Point", "coordinates": [ -98.612619, 21.1652 ] } },
{ "type": "Feature", "properties": { "Municip": "Mineral del Chico", "Locacin": "Tanque Carboneras", "Año": 2025.0, "estado": "Funcionando en buen estado", "Gastdag": 12.0, "Marca": "LMI Milton ROY", "Modelo": "PD041-828SI" }, "geometry": { "type": "Point", "coordinates": [ -98.648735, 20.169516 ] } }
]
}
