{
"type": "FeatureCollection",
"name": "Acciones_de_desinfeccion_regional",
"features": [
{ "type": "Feature", "properties": { "CVE_MUN": "13003, 13009, 13023, 13041, 13050, 13054, 13055", "NOM_MUN": "Actopan, El Arenal, Francisco I. Madero, Mixquiahuala de Juárez, Progreso de Obregón, San Salvador, Santiago de Anaya", "Región": "Región Actopan", "CLORO_2020": 0.40833333333333333, "CLORO_2021": 0.55714285714285716, "CLORO_2022": 0.624, "CLORO_2023": 0.35, "CLORO_2024": 0.52285714285714291, "Pozos_Municipio": 80, "Dosificadores_municipio": 1.0, "Dosificadores_localidad": "Actopan", "Dosificadores_nombres": "Tanque Efren Rebolledo", "Dosificadores_anios": "2020", "Dosificadores_marca": "Milton Roy: PD041-0828-NI" }, "geometry": null },
{ "type": "Feature", "properties": { "CVE_MUN": "13007, 13008, 13021, 13061, 13072", "NOM_MUN": "Almoloya, Apan, Emiliano Zapata, Tepeapulco, Tlanalapa", "Región": "Región Apan", "CLORO_2020": 0.332, "CLORO_2021": 0.422, "CLORO_2022": 0.5225, "CLORO_2023": 0.332, "CLORO_2024": 0.722, "Pozos_Municipio": 45, "Dosificadores_municipio": 2.0, "Dosificadores_localidad": "Emiliano Zapata, Santa Bárbara", "Dosificadores_nombres": "Pozo 1 cabecera Mpal, Pozo Santa Barbara", "Dosificadores_anios": "2020, 2020", "Dosificadores_marca": "Milton Roy: PD041-0828-NI, Milton Roy: PD041-0828-NI" }, "geometry": null },
{ "type": "Feature", "properties": { "CVE_MUN": "13011, 13014, 13025, 13026, 13028, 13032, 13034, 13046, 13073, 13078, 13080", "NOM_MUN": "Atlapexco, Calnali, Huautla, Huazalingo, Huejutla de Reyes, Jaltocán, Lolotla, San Felipe Orizatlán, Tlanchinol, Xochiatipan, Yahualica", "Región": "Región Huejutla", "CLORO_2020": 0.23363636363636364, "CLORO_2021": 0.416, "CLORO_2022": 0.39, "CLORO_2023": 0.18090909090909091, "CLORO_2024": 0.15, "Pozos_Municipio": 123, "Dosificadores_municipio": 0.0, "Dosificadores_localidad": "No hay dosificadores", "Dosificadores_nombres": "No hay dosificadores", "Dosificadores_anios": "No hay dosificadores", "Dosificadores_marca": "No hay dosificadores" }, "geometry": null },
{ "type": "Feature", "properties": { "CVE_MUN": "13017, 13029, 13044, 13059", "NOM_MUN": "Chapantongo, Huichapan, Nopala de Villagrán, Tecozautla", "Región": "Región Huichapan", "CLORO_2020": 0.67, "CLORO_2021": 0.57, "CLORO_2022": 0.565, "CLORO_2023": 0.54, "CLORO_2024": 0.34, "Pozos_Municipio": 38, "Dosificadores_municipio": 2.0, "Dosificadores_localidad": "Chapantongo, Toxthe", "Dosificadores_nombres": "Pozo La Unidad, Pozo Toxthe", "Dosificadores_anios": "2020, 2020", "Dosificadores_marca": "Milton Roy: PD041-0828-NI, Milton Roy: PD041-0828-NI" }, "geometry": null },
{ "type": "Feature", "properties": { "CVE_MUN": "13006, 13015, 13019, 13030, 13043, 13058, 13084", "NOM_MUN": "Alfajayucan, Cardonal, Chilcuautla, Ixmiquilpan, Nicolás Flores, Tasquillo, Zimapán", "Región": "Región Ixmiquilpan", "CLORO_2020": 0.49142857142857144, "CLORO_2021": 0.726, "CLORO_2022": 0.918, "CLORO_2023": 0.49428571428571427, "CLORO_2024": 0.12285714285714286, "Pozos_Municipio": 96, "Dosificadores_municipio": 1.0, "Dosificadores_localidad": "San Francisco Sacachichilco", "Dosificadores_nombres": "Pozo San Francisco Sacachichilco", "Dosificadores_anios": "2023", "Dosificadores_marca": "EMEC: Pompa VCO 1804" }, "geometry": null },
{ "type": "Feature", "properties": { "CVE_MUN": "13018, 13031, 13040, 13047, 13049", "NOM_MUN": "Chapulhuacán, Jacala de Ledezma, La Misión, Pacula, Pisaflores", "Región": "Región Jacala", "CLORO_2020": 0.608, "CLORO_2021": 0.48, "CLORO_2022": 0.0, "CLORO_2023": 0.226, "CLORO_2024": 0.52, "Pozos_Municipio": 47, "Dosificadores_municipio": 2.0, "Dosificadores_localidad": "Pacula, Santa María Miraflores", "Dosificadores_nombres": "Pozo 1 cabecera Mpal, Pozo Santa Maria", "Dosificadores_anios": "2023, 2023", "Dosificadores_marca": "EMEC: Pompa VCO 1804, EMEC: Pompa VCO 1804" }, "geometry": null },
{ "type": "Feature", "properties": { "CVE_MUN": "13022, 13024, 13038, 13039, 13045, 13051", "NOM_MUN": "Epazoyucan, Huasca de Ocampo, Mineral del Chico, Mineral del Monte, Omitlán de Juárez, Mineral de la Reforma", "Región": "Región Mineral de la Reforma", "CLORO_2020": 0.522, "CLORO_2021": 0.416, "CLORO_2022": 0.28, "CLORO_2023": 0.35166666666666668, "CLORO_2024": 0.69333333333333336, "Pozos_Municipio": 47, "Dosificadores_municipio": 2.0, "Dosificadores_localidad": "Mineral del Chico, La Estanzuela", "Dosificadores_nombres": "Pozo 1 Cabecera Mpal, Tanque La Palma", "Dosificadores_anios": "2023, 2023", "Dosificadores_marca": "EMEC: Pompa VCO 1804, EMEC: Pompa VCO 1804" }, "geometry": null },
{ "type": "Feature", "properties": { "CVE_MUN": "13048, 13052, 13082", "NOM_MUN": "Pachuca de Soto, San Agustín Tlaxiaca, Zapotlán de Juárez", "Región": "Región Pachuca", "CLORO_2020": 0.85333333333333328, "CLORO_2021": 1.28, "CLORO_2022": null, "CLORO_2023": 0.61333333333333329, "CLORO_2024": 0.91, "Pozos_Municipio": 23, "Dosificadores_municipio": 0.0, "Dosificadores_localidad": "No hay dosificadores", "Dosificadores_nombres": "No hay dosificadores", "Dosificadores_anios": "No hay dosificadores", "Dosificadores_marca": "No hay dosificadores" }, "geometry": null },
{ "type": "Feature", "properties": { "CVE_MUN": "13066, 13069, 13075, 13083", "NOM_MUN": "Villa de Tezontepec, Tizayuca, Tolcayuca, Zempoala", "Región": "Región Tizayuca", "CLORO_2020": 0.3825, "CLORO_2021": 0.6725, "CLORO_2022": 1.0, "CLORO_2023": 0.3825, "CLORO_2024": 0.6975, "Pozos_Municipio": 14, "Dosificadores_municipio": 0.0, "Dosificadores_localidad": "No hay dosificadores", "Dosificadores_nombres": "No hay dosificadores", "Dosificadores_anios": "No hay dosificadores", "Dosificadores_marca": "No hay dosificadores" }, "geometry": null },
{ "type": "Feature", "properties": { "CVE_MUN": "13005, 13010, 13013, 13063, 13064, 13065, 13067, 13070, 13074, 13076", "NOM_MUN": "Ajacuba, Atitalaquia, Atotonilco de Tula, Tepeji del Río de Ocampo, Tepetitlán, Tetepango, Tezontepec de Aldama, Tlahuelilpan, Tlaxcoapan, Tula de Allende", "Región": "Región Tula", "CLORO_2020": 0.30666666666666664, "CLORO_2021": 0.64555555555555555, "CLORO_2022": 0.626, "CLORO_2023": 0.429, "CLORO_2024": 0.531, "Pozos_Municipio": 92, "Dosificadores_municipio": 0.0, "Dosificadores_localidad": "No hay dosificadores", "Dosificadores_nombres": "No hay dosificadores", "Dosificadores_anios": "No hay dosificadores", "Dosificadores_marca": "No hay dosificadores" }, "geometry": null },
{ "type": "Feature", "properties": { "CVE_MUN": "13001, 13002, 13004, 13016, 13027, 13035, 13053, 13056, 13057, 13060, 13077", "NOM_MUN": "Acatlán, Acaxochitlán, Agua Blanca de Iturbide, Cuautepec de Hinojosa, Huehuetla, Metepec, San Bartolo Tutotepec, Santiago Tulantepec de Lugo Guerrero, Singuilucan, Tenango de Doria, Tulancingo de Bravo", "Región": "Región Tulancingo", "CLORO_2020": 0.53636363636363638, "CLORO_2021": 0.495, "CLORO_2022": 0.654, "CLORO_2023": 0.45181818181818184, "CLORO_2024": 0.41090909090909089, "Pozos_Municipio": 128, "Dosificadores_municipio": 6.0, "Dosificadores_localidad": "Chichicaxtle, Chichicaxtle, La Victoria, Palo Gordo, Metepec, Temaxcalillos", "Dosificadores_nombres": "Tanque Remudadero, Caseta Chichicaxtle, Pozo La Victoria, Pozo Palo Gordo, Pozo Nuevo Metepec, Pozo Temaxcalillos", "Dosificadores_anios": "2023, 2023, 2020, 2020, 2023, 2023", "Dosificadores_marca": "EMEC: Pompa VCO 1804, EMEC: Pompa VCO 1804, Milton Roy: PD041-0828-NI, Milton Roy: PD041-0828-NI, EMEC: Pompa VCO 1804, EMEC: Pompa VCO 1804" }, "geometry": null },
{ "type": "Feature", "properties": { "CVE_MUN": "13012, 13020, 13033, 13036, 13037, 13042, 13062, 13068, 13071, 13079, 13081", "NOM_MUN": "Atotonilco el Grande, Eloxochitlán, Juárez Hidalgo, San Agustín Metzquititlán, Metztitlán, Molango de Escamilla, Tepehuacán de Guerrero, Tianguistengo, Tlahuiltepa, Xochicoatlán, Zacualtipán de Ángeles", "Región": "Región Zacualtipán", "CLORO_2020": 0.2181818181818182, "CLORO_2021": 0.638, "CLORO_2022": 0.6, "CLORO_2023": 0.2181818181818182, "CLORO_2024": 0.27272727272727271, "Pozos_Municipio": 117, "Dosificadores_municipio": 0.0, "Dosificadores_localidad": "No hay dosificadores", "Dosificadores_nombres": "No hay dosificadores", "Dosificadores_anios": "No hay dosificadores", "Dosificadores_marca": "No hay dosificadores" }, "geometry": null }
]
}
